ONEWEB-0709             
1 55172U 23004AJ  26055.97179131 -.00000247  00000+0 -73407-3 0  9993
2 55172  87.8839  43.4006 0002528 101.6166 258.5246 13.11414523151161
ONEWEB-0710             
1 55173U 23004AK  26055.89418108 -.00000020  00000+0 -84286-4 0  9992
2 55173  87.9125  28.1691 0001982  78.0670 282.0684 13.17649149152799
ONEWEB-0711             
1 55174U 23004AL  26055.94298049  .00000459  00000+0  12600-2 0  9992
2 55174  87.8846  43.3864 0002195  66.0581 294.0777 13.11416480151121
ONEWEB-0713             
1 55175U 23004AM  26055.96162431  .00000330  00000+0  89634-3 0  9990
2 55175  87.8842  43.3831 0002039  75.3678 284.7676 13.11413881151114
ONEWEB-0715             
1 55176U 23004AN  26055.95654152  .00000411  00000+0  11231-2 0  9993
2 55176  87.8845  43.3844 0002573  91.3726 268.7697 13.11415213151157
ONEWEB-0716             
1 55177U 23004AP  26055.35589000  .00000058  00000+0  11520-3 0  9996
2 55177  87.9122  28.2763 0001685  87.6347 272.4978 13.17647814152727
ONEWEB-0717             
1 55178U 23004AQ  26055.64275491  .00000060  00000+0  12102-3 0  9995
2 55178  87.9132  28.1972 0002355  68.6694 291.4689 13.17647811152816
ONEWEB-0719             
1 55179U 23004AR  26055.65288449  .00000044  00000+0  79250-4 0  9994
2 55179  87.9132  28.1768 0001687  82.5974 277.5349 13.17650241152766
ONEWEB-0530             
1 55796U 23029A   26056.12191254  .00000082  00000+0  16940-3 0  9994
2 55796  87.9184 296.8523 0001841  62.7259 297.4062 13.20770880146356
ONEWEB-0534             
1 55797U 23029B   26056.18504505 -.00000050  00000+0 -15564-3 0  9996
2 55797  87.9182 296.8390 0001618  83.2525 276.8793 13.20771031146365
ONEWEB-0556             
1 55798U 23029C   26056.11559960  .00000057  00000+0  10805-3 0  9993
2 55798  87.9179 296.8554 0000743  68.6312 291.4900 13.20770120146353
ONEWEB-0562             
1 55799U 23029D   26056.17873084  .00000055  00000+0  10218-3 0  9992
2 55799  87.9181 296.8225 0001477  49.1293 310.9968 13.20771455146363
ONEWEB-0563             
1 55800U 23029E   26056.17241652  .00000096  00000+0  20390-3 0  9992
2 55800  87.9182 296.8544 0001454  87.2823 272.8477 13.20771556146350
ONEWEB-0564             
1 55801U 23029F   26056.16610618  .00000068  00000+0  13573-3 0  9998
2 55801  87.9182 296.8279 0001603  67.7827 292.3476 13.20771599146363
ONEWEB-0638             
1 55802U 23029G   26056.11933948 -.00000318  00000+0 -89145-3 0  9996
2 55802  87.8999 312.1168 0001210  64.4639 295.6616 13.14503474144679
ONEWEB-0639             
1 55803U 23029H   26056.12632321 -.00000059  00000+0 -17872-3 0  9999
2 55803  87.9239 327.2971 0001816 115.1431 244.9891 13.19726703144122
ONEWEB-0640             
1 55804U 23029J   26056.12883331 -.00000308  00000+0 -86627-3 0  9990
2 55804  87.8999 312.1052 0000944  83.0021 277.1216 13.14502196144691
ONEWEB-0641             
1 55805U 23029K   26056.12158588 -.00000156  00000+0 -42219-3 0  9990
2 55805  87.9246 327.2838 0001777  85.1324 275.0012 13.19723489144136
ONEWEB-0642             
1 55806U 23029L   26055.73776425 -.00000028  00000+0 -10138-3 0  9996
2 55806  87.9241 327.3756 0001965 104.3279 255.8072 13.19725165144072
ONEWEB-0643             
1 55807U 23029M   26056.17483160  .00000129  00000+0  31389-3 0  9998
2 55807  87.9001 312.0833 0002067  97.8885 262.2480 13.14501406144673
ONEWEB-0644             
1 55808U 23029N   26056.18793148  .00000000  00000+0 -33383-4 0  9996
2 55808  87.9232 327.2937 0001843  91.2986 268.8358 13.19725594144132
ONEWEB-0645             
1 55809U 23029P   26056.13420811 -.00000032  00000+0 -11135-3 0  9992
2 55809  87.9237 327.2960 0001363  93.6717 266.4572 13.19723913144123
ONEWEB-0646             
1 55810U 23029Q   26056.15159265  .00000041  00000+0  69793-4 0  9990
2 55810  87.9244 327.2920 0001792  88.2912 271.8426 13.19726632144110
ONEWEB-0648             
1 55811U 23029R   26056.14310992 -.00000064  00000+0 -20638-3 0  9997
2 55811  87.9004 312.0537 0001455 115.8207 244.3073 13.14502085144674
ONEWEB-0649             
1 55812U 23029S   26056.17684126 -.00003797  00000+0 -95205-2 0  9991
2 55812  87.9230 327.2856 0001541  86.7343 273.3966 13.19729905144154
ONEWEB-0650             
1 55813U 23029T   26056.17212888  .00000055  00000+0  10454-3 0  9990
2 55813  87.9241 327.2882 0001755  95.1083 265.0250 13.19726479144122
ONEWEB-0652             
1 55814U 23029U   26056.12408252 -.00000374  00000+0 -10427-2 0  9993
2 55814  87.9000 312.0737 0001755  74.1264 286.0059 13.14502302144644
ONEWEB-0653             
1 55815U 23029V   26056.18434207 -.00000046  00000+0 -15960-3 0  9993
2 55815  87.9001 312.0521 0001550  74.0108 286.1192 13.14501331144680
ONEWEB-0654             
1 55816U 23029W   26056.17958659  .00000024  00000+0  30524-4 0  9993
2 55816  87.9001 312.0528 0001774  68.0366 292.0952 13.14501290144702
ONEWEB-0656             
1 55817U 23029X   26056.15979413  .00000090  00000+0  18904-3 0  9993
2 55817  87.9192 296.7938 0001754  68.0083 292.1237 13.20771196146363
ONEWEB-0657             
1 55818U 23029Y   26056.16739654  .00000057  00000+0  11014-3 0  9994
2 55818  87.9243 327.2878 0002417  72.6669 287.4728 13.19724640144137
ONEWEB-0658             
1 55819U 23029Z   26056.16265528  .00000129  00000+0  29115-3 0  9990
2 55819  87.9253 327.2543 0001870  92.8425 267.2922 13.19725142144145
ONEWEB-0660             
1 55820U 23029AA  26056.15739872  .00000176  00000+0  44115-3 0  9998
2 55820  87.9009 312.0426 0001364  85.1751 274.9535 13.14500680144680
ONEWEB-0661             
1 55821U 23029AB  26056.11615549 -.00000192  00000+0 -55118-3 0  9994
2 55821  87.8997 312.1083 0001349  81.3005 278.8277 13.14501904144663
ONEWEB-0662             
1 55822U 23029AC  26056.15104832  .00000251  00000+0  64352-3 0  9991
2 55822  87.9000 312.1086 0001381  86.5669 273.5619 13.14501928144716
ONEWEB-0663             
1 55823U 23029AD  26056.12600619  .00000064  00000+0  12448-3 0  9994
2 55823  87.9199 296.8728 0001471  96.9834 263.1467 13.20861186146356
ONEWEB-0664             
1 55824U 23029AE  26056.14717766  .00000438  00000+0  10442-2 0  9995
2 55824  87.9182 296.8627 0001183  74.9568 285.1697 13.20772900146351
ONEWEB-0665             
1 55825U 23029AF  26056.18910247 -.00000257  00000+0 -72863-3 0  9996
2 55825  87.9001 312.0737 0001430  88.2933 271.8361 13.14501770144697
ONEWEB-0666             
1 55826U 23029AG  26056.14085722  .00000048  00000+0  86761-4 0  9993
2 55826  87.9184 296.8535 0002286  73.7219 286.4165 13.20771730146363
ONEWEB-0667             
1 55827U 23029AH  26056.13454205  .00000010  00000+0 -76394-5 0  9991
2 55827  87.9194 296.7939 0001469  84.7405 275.3896 13.20771035146358
ONEWEB-0669             
1 55828U 23029AJ  26056.12980550  .00000021  00000+0  19913-4 0  9992
2 55828  87.9176 296.8218 0001608  60.2133 299.9160 13.20770752146353
ONEWEB-0670             
1 55829U 23029AK  26056.16690345  .00000276  00000+0  71062-3 0  9991
2 55829  87.9000 312.0972 0001263  75.8823 284.2447 13.14501408144719
ONEWEB-0671             
1 55830U 23029AL  26056.15791541  .00000017  00000+0  10800-4 0  9999
2 55830  87.9243 327.2905 0001562  82.1461 277.9849 13.19725275144120
ONEWEB-0672             
1 55831U 23029AM  26056.12507266  .00000016  00000+0  68478-5 0  9990
2 55831  87.9189 296.8078 0001810  74.3355 285.7978 13.20771428146353
ONEWEB-0673             
1 55832U 23029AN  26056.13500968 -.00000019  00000+0 -80024-4 0  9999
2 55832  87.9247 327.2803 0001583  79.4817 280.6494 13.19726145144124
ONEWEB-0674             
1 55833U 23029AP  26056.13517649 -.00000220  00000+0 -62793-3 0  9990
2 55833  87.8999 312.0804 0001273  71.8229 288.3039 13.14502395144696
ONEWEB-0675             
1 55834U 23029AQ  26056.15001860  .00000032  00000+0  47222-4 0  9996
2 55834  87.9237 327.2947 0002023  79.7996 280.3364 13.19725180144148
ONEWEB-0720             
1 55835U 23029AR  26056.14212509  .00000033  00000+0  50408-4 0  9991
2 55835  87.9242 327.2960 0001632  91.1880 268.9439 13.19725179144069
ONEWEB-0537             
1 56046U 23043A   26056.09906875  .00000012  00000+0 -14772-5 0  9995
2 56046  87.8997 251.0746 0001781  88.3144 271.8191 13.16595716144216
ONEWEB-0538             
1 56047U 23043B   26056.09274024 -.00000173  00000+0 -48715-3 0  9991
2 56047  87.8995 251.0780 0001884  97.1182 263.0163 13.16594149144229
ONEWEB-0546             
1 56048U 23043C   26056.00407810 -.00000128  00000+0 -36862-3 0  9994
2 56048  87.9001 251.0931 0002085  77.9506 282.1859 13.16593428144208
ONEWEB-0547             
1 56049U 23043D   26056.14250626  .00000055  00000+0  10151-3 0  9991
2 56049  87.9167 266.3190 0001677  93.6134 266.5191 13.21828087143422
ONEWEB-0548             
1 56050U 23043E   26056.10460662 -.00000079  00000+0 -24079-3 0  9994
2 56050  87.8997 251.0731 0001183  85.1764 274.9502 13.16591527144210
ONEWEB-0549             
1 56051U 23043F   26056.05943098  .00000188  00000+0  42367-3 0  9997
2 56051  87.9163 266.3482 0001787  96.2566 263.8772 13.21824905143414
ONEWEB-0550             
1 56052U 23043G   26056.12193657  .00000044  00000+0  75459-4 0  9994
2 56052  87.9167 266.3311 0001518  86.2886 273.8421 13.21827627143423
ONEWEB-0551             
1 56053U 23043H   26056.12278651  .00000065  00000+0  13900-3 0  9998
2 56053  87.8946 281.6065 0001801  95.7207 264.4129 13.15547007141660
ONEWEB-0552             
1 56054U 23043J   26056.11701867  .00000013  00000+0  88005-6 0  9992
2 56054  87.9169 266.3405 0001480  97.6613 262.4689 13.21824710143423
ONEWEB-0553             
1 56055U 23043K   26056.01040481 -.00000026  00000+0 -10176-3 0  9997
2 56055  87.8998 251.0948 0001729  79.9509 280.1816 13.16592409144217
ONEWEB-0554             
1 56056U 23043L   26056.07373395 -.00000091  00000+0 -27166-3 0  9996
2 56056  87.8999 251.0927 0001299  86.2360 273.8920 13.16593869144209
